SHIYAN-33               
1 68405U 26064A   26087.92644434  .00006503  00000+0  27404-3 0  9993
2 68405  97.4665 163.8675 0014909 225.4312 134.5709 15.23577189   276
