{
  "norad_id": 68405,
  "name": "SHIYAN-33",
  "history": [
    {
      "epoch": "2026-03-28T22:14:04.790976Z",
      "apogee_km": 505.30878084596407,
      "perigee_km": 484.81359117509965,
      "latitude_deg": 4.35695064370412e-05,
      "longitude_deg": 4.007650774960265,
      "height_km": 505.3556206091049,
      "semi_major_axis_km": 6873.198186010532,
      "eccentricity": 0.00149095,
      "inclination_deg": 97.4665,
      "raan_deg": 163.8675,
      "arg_perigee_deg": 225.4312,
      "mean_anomaly_deg": 134.5709,
      "mean_motion_rev_day": 15.23577189
    }
  ]
}